ONEWEB-0219             
1 48223U 21031P   25051.93063823  .00000003  00000+0 -27111-4 0  9992
2 48223  87.9033  25.3801 0001856  77.5176 282.6161 13.14500382185156
ONEWEB-0202             
1 48224U 21031Q   25051.91161139  .00000271  00000+0  69722-3 0  9999
2 48224  87.9029  25.4002 0002570  74.8271 285.3143 13.14500814185134
ONEWEB-0204             
1 48225U 21031R   25051.94570476 -.00000136  00000+0 -40200-3 0  9993
2 48225  87.9031  25.4054 0001511  85.1213 275.0089 13.14506107185035
ONEWEB-0205             
1 48226U 21031S   25051.92113501  .00000204  00000+0  51583-3 0  9994
2 48226  87.9031  25.3817 0001825  77.9492 282.1843 13.14502575185041
ONEWEB-0206             
1 48227U 21031T   25051.97029066  .00000096  00000+0  22318-3 0  9995
2 48227  87.9024  25.3552 0001812  81.3957 278.7378 13.14502374185008
ONEWEB-0182             
1 48228U 21031U   25051.96554095  .00000039  00000+0  71728-4 0  9997
2 48228  87.9030  25.3940 0001724  85.9425 274.1902 13.14503892185211
ONEWEB-0186             
1 48229U 21031V   25051.90051804  .00000222  00000+0  56514-3 0  9991
2 48229  87.9029  25.3691 0001894  80.2518 279.8825 13.14502353185152
ONEWEB-0181             
1 48230U 21031W   25051.95442743 -.00000093  00000+0 -28661-3 0  9994
2 48230  87.9030  25.4295 0001992  80.9670 279.1685 13.14502372185015
ONEWEB-0188             
1 48231U 21031X   25051.91637577  .00000224  00000+0  57045-3 0  9994
2 48231  87.9031  25.4298 0001827  81.7310 278.4027 13.14502101184917
ONEWEB-0220             
1 48232U 21031Y   25051.95601138 -.00000120  00000+0 -35818-3 0  9994
2 48232  87.9023  25.3718 0001791  74.3653 285.7674 13.14501087185184
ONEWEB-0165             
1 48233U 21031Z   25051.90844460  .00000260  00000+0  66782-3 0  9994
2 48233  87.9029  25.4144 0001964  79.2079 280.9272 13.14502362185136
ONEWEB-0199             
1 48234U 21031AA  25051.96870574  .00000086  00000+0  19695-3 0  9993
2 48234  87.9028  25.3682 0001892  89.3347 270.8000 13.14502782185045
ONEWEB-0203             
1 48235U 21031AB  25051.95919108 -.00000129  00000+0 -38307-3 0  9991
2 48235  87.9031  25.3725 0002173  91.7892 268.3486 13.14502080185055
ONEWEB-0197             
1 48236U 21031AC  25051.93459272 -.00000050  00000+0 -17067-3 0  9994
2 48236  87.9031  25.3879 0001505  83.3634 276.7667 13.14503688184963
ONEWEB-0194             
1 48237U 21031AD  25051.91320418  .00000269  00000+0  69129-3 0  9998
2 48237  87.9032  25.3874 0001989  91.6121 268.5236 13.14502221185132
ONEWEB-0193             
1 48238U 21031AE  25051.92905095  .00000106  00000+0  25236-3 0  9991
2 48238  87.9033  25.3921 0001991  83.9063 276.2294 13.14504060185086
ONEWEB-0191             
1 48239U 21031AF  25051.94015655 -.00000150  00000+0 -43829-3 0  9997
2 48239  87.9030  25.3660 0001992  82.8814 277.2542 13.14501283184942
ONEWEB-0195             
1 48240U 21031AG  25051.91717034  .00000203  00000+0  51373-3 0  9996
2 48240  87.9030  25.3688 0002174  74.9784 285.1586 13.14502797184920
ONEWEB-0201             
1 48241U 21031AH  25051.90607603  .00000228  00000+0  57939-3 0  9997
2 48241  87.9031  25.4138 0001898  79.2595 280.8748 13.14503714185151
ONEWEB-0207             
1 48242U 21031AJ  25051.96154709 -.00000309  00000+0 -86915-3 0  9996
2 48242  87.9030  25.3655 0001662  80.0398 280.0919 13.14502286185070
ONEWEB-0208             
1 48243U 21031AK  25051.94332563 -.00000118  00000+0 -35376-3 0  9994
2 48243  87.9030  25.3833 0001983  80.1983 279.9371 13.14504511185089
ONEWEB-0200             
1 48244U 21031AL  25051.90685960  .00000248  00000+0  63400-3 0  9994
2 48244  87.9027  25.3844 0002037  80.1907 279.9452 13.14502025185005
ONEWEB-0217             
1 48245U 21031AM  25051.92272000  .00000164  00000+0  40778-3 0  9994
2 48245  87.9028  25.3657 0002123  79.0669 281.0700 13.14501973184951
