OBJECT_NAME,OBJECT_ID,EPOCH,MEAN_MOTION,ECCENTRICITY,INCLINATION,RA_OF_ASC_NODE,ARG_OF_PERICENTER,MEAN_ANOMALY,EPHEMERIS_TYPE,CLASSIFICATION_TYPE,NORAD_CAT_ID,ELEMENT_SET_NO,REV_AT_EPOCH,BSTAR,MEAN_MOTION_DOT,MEAN_MOTION_DDOT
ONEWEB-0219,2021-031P,2025-02-20T22:20:07.143072,13.14500382,.0001856,87.9033,25.3801,77.5176,282.6161,0,U,48223,999,18515,-.27111E-4,.3E-7,0
ONEWEB-0202,2021-031Q,2025-02-20T21:52:43.224096,13.14500814,.000257,87.9029,25.4002,74.8271,285.3143,0,U,48224,999,18513,.69722E-3,.271E-5,0
ONEWEB-0204,2021-031R,2025-02-20T22:41:48.891264,13.14506107,.0001511,87.9031,25.4054,85.1213,275.0089,0,U,48225,999,18503,-.402E-3,-.136E-5,0
ONEWEB-0205,2021-031S,2025-02-20T22:06:26.064864,13.14502575,.0001825,87.9031,25.3817,77.9492,282.1843,0,U,48226,999,18504,.51583E-3,.204E-5,0
ONEWEB-0206,2021-031T,2025-02-20T23:17:13.113024,13.14502374,.0001812,87.9024,25.3552,81.3957,278.7378,0,U,48227,999,18500,.22318E-3,.96E-6,0
ONEWEB-0182,2021-031U,2025-02-20T23:10:22.738080,13.14503892,.0001724,87.9030,25.3940,85.9425,274.1902,0,U,48228,999,18521,.71728E-4,.39E-6,0
ONEWEB-0186,2021-031V,2025-02-20T21:36:44.758656,13.14502353,.0001894,87.9029,25.3691,80.2518,279.8825,0,U,48229,999,18515,.56514E-3,.222E-5,0
ONEWEB-0181,2021-031W,2025-02-20T22:54:22.529952,13.14502372,.0001992,87.9030,25.4295,80.9670,279.1685,0,U,48230,999,18501,-.28661E-3,-.93E-6,0
ONEWEB-0188,2021-031X,2025-02-20T21:59:34.866528,13.14502101,.0001827,87.9031,25.4298,81.7310,278.4027,0,U,48231,999,18491,.57045E-3,.224E-5,0
ONEWEB-0220,2021-031Y,2025-02-20T22:56:39.383232,13.14501087,.0001791,87.9023,25.3718,74.3653,285.7674,0,U,48232,999,18518,-.35818E-3,-.12E-5,0
ONEWEB-0165,2021-031Z,2025-02-20T21:48:09.613440,13.14502362,.0001964,87.9029,25.4144,79.2079,280.9272,0,U,48233,999,18513,.66782E-3,.26E-5,0
ONEWEB-0199,2021-031AA,2025-02-20T23:14:56.175936,13.14502782,.0001892,87.9028,25.3682,89.3347,270.8000,0,U,48234,999,18504,.19695E-3,.86E-6,0
ONEWEB-0203,2021-031AB,2025-02-20T23:01:14.109312,13.14502080,.0002173,87.9031,25.3725,91.7892,268.3486,0,U,48235,999,18505,-.38307E-3,-.129E-5,0
ONEWEB-0197,2021-031AC,2025-02-20T22:25:48.811008,13.14503688,.0001505,87.9031,25.3879,83.3634,276.7667,0,U,48236,999,18496,-.17067E-3,-.5E-6,0
ONEWEB-0194,2021-031AD,2025-02-20T21:55:00.841152,13.14502221,.0001989,87.9032,25.3874,91.6121,268.5236,0,U,48237,999,18513,.69129E-3,.269E-5,0
ONEWEB-0193,2021-031AE,2025-02-20T22:17:50.002080,13.14504060,.0001991,87.9033,25.3921,83.9063,276.2294,0,U,48238,999,18508,.25236E-3,.106E-5,0
ONEWEB-0191,2021-031AF,2025-02-20T22:33:49.525920,13.14501283,.0001992,87.9030,25.3660,82.8814,277.2542,0,U,48239,999,18494,-.43829E-3,-.15E-5,0
ONEWEB-0195,2021-031AG,2025-02-20T22:00:43.517376,13.14502797,.0002174,87.9030,25.3688,74.9784,285.1586,0,U,48240,999,18492,.51373E-3,.203E-5,0
ONEWEB-0201,2021-031AH,2025-02-20T21:44:44.968992,13.14503714,.0001898,87.9031,25.4138,79.2595,280.8748,0,U,48241,999,18515,.57939E-3,.228E-5,0
ONEWEB-0207,2021-031AJ,2025-02-20T23:04:37.668576,13.14502286,.0001662,87.9030,25.3655,80.0398,280.0919,0,U,48242,999,18507,-.86915E-3,-.309E-5,0
ONEWEB-0208,2021-031AK,2025-02-20T22:38:23.334432,13.14504511,.0001983,87.9030,25.3833,80.1983,279.9371,0,U,48243,999,18508,-.35376E-3,-.118E-5,0
ONEWEB-0200,2021-031AL,2025-02-20T21:45:52.669440,13.14502025,.0002037,87.9027,25.3844,80.1907,279.9452,0,U,48244,999,18500,.634E-3,.248E-5,0
ONEWEB-0217,2021-031AM,2025-02-20T22:08:43.008000,13.14501973,.0002123,87.9028,25.3657,79.0669,281.0700,0,U,48245,999,18495,.40778E-3,.164E-5,0
